{
  "type": "FeatureCollection",
  "features": [
    {
      "type": "Feature",
      "properties": {
        "norad_id": 25590,
        "name": "COSMOS 2361",
        "group": "musson",
        "lat": -37.928460756609454,
        "lon": -26.306060552894525,
        "alt_km": 988.6668413253046,
        "timestamp": "2025-12-19T06:59:44.178222+00:00",
        "meta_object_name": "COSMOS 2361",
        "meta_object_id": "1998-076A",
        "meta_epoch": "2025-12-18T22:43:29.771904",
        "meta_mean_motion": 13.7321829,
        "meta_eccentricity": 0.00301329,
        "meta_inclination": 82.934,
        "meta_ra_of_asc_node": 339.4952,
        "meta_arg_of_pericenter": 247.6046,
        "meta_mean_anomaly": 171.2301,
        "meta_ephemeris_type": 0,
        "meta_classification_type": "U",
        "meta_norad_cat_id": 25590,
        "meta_element_set_no": 999,
        "meta_rev_at_epoch": 35196,
        "meta_bstar": 5.4187564e-05,
        "meta_mean_motion_dot": 6.5e-07,
        "meta_mean_motion_ddot": 0,
        "tle_line1": "1 25590U 98076A   25352.94687236  .00000065  00000+0  54188-4 0  9993",
        "tle_line2": "2 25590  82.9340 339.4952 0030132 247.6046 171.2301 13.73218290351967"
      },
      "geometry": {
        "type": "Point",
        "coordinates": [
          -26.306060552894525,
          -37.928460756609454
        ]
      }
    },
    {
      "type": "Feature",
      "properties": {
        "norad_id": 26818,
        "name": "COSMOS 2378",
        "group": "musson",
        "lat": 54.921197674321796,
        "lon": 5.049628122757791,
        "alt_km": 995.2445103346608,
        "timestamp": "2025-12-19T06:59:44.178244+00:00",
        "meta_object_name": "COSMOS 2378",
        "meta_object_id": "2001-023A",
        "meta_epoch": "2025-12-18T13:50:24.184320",
        "meta_mean_motion": 13.74142495,
        "meta_eccentricity": 0.00327551,
        "meta_inclination": 82.927,
        "meta_ra_of_asc_node": 355.3965,
        "meta_arg_of_pericenter": 188.4523,
        "meta_mean_anomaly": 293.3088,
        "meta_ephemeris_type": 0,
        "meta_classification_type": "U",
        "meta_norad_cat_id": 26818,
        "meta_element_set_no": 999,
        "meta_rev_at_epoch": 23003,
        "meta_bstar": 4.2240019e-05,
        "meta_mean_motion_dot": 5.5e-07,
        "meta_mean_motion_ddot": 0,
        "tle_line1": "1 26818U 01023A   25352.57666880  .00000055  00000+0  42240-4 0  9999",
        "tle_line2": "2 26818  82.9270 355.3965 0032755 188.4523 293.3088 13.74142495230035"
      },
      "geometry": {
        "type": "Point",
        "coordinates": [
          5.049628122757791,
          54.921197674321796
        ]
      }
    },
    {
      "type": "Feature",
      "properties": {
        "norad_id": 27436,
        "name": "COSMOS 2389",
        "group": "musson",
        "lat": -72.42331911453783,
        "lon": -80.8574311999685,
        "alt_km": 1004.0112702146062,
        "timestamp": "2025-12-19T06:59:44.178259+00:00",
        "meta_object_name": "COSMOS 2389",
        "meta_object_id": "2002-026A",
        "meta_epoch": "2025-12-18T22:56:25.002816",
        "meta_mean_motion": 13.75155304,
        "meta_eccentricity": 0.00474326,
        "meta_inclination": 82.9508,
        "meta_ra_of_asc_node": 302.383,
        "meta_arg_of_pericenter": 43.841,
        "meta_mean_anomaly": 22.1589,
        "meta_ephemeris_type": 0,
        "meta_classification_type": "U",
        "meta_norad_cat_id": 27436,
        "meta_element_set_no": 999,
        "meta_rev_at_epoch": 18234,
        "meta_bstar": 3.2479376e-05,
        "meta_mean_motion_dot": 4.7e-07,
        "meta_mean_motion_ddot": 0,
        "tle_line1": "1 27436U 02026A   25352.95584494  .00000047  00000+0  32479-4 0  9996",
        "tle_line2": "2 27436  82.9508 302.3830 0047432  43.8410  22.1589 13.75155304182344"
      },
      "geometry": {
        "type": "Point",
        "coordinates": [
          -80.8574311999685,
          -72.42331911453783
        ]
      }
    },
    {
      "type": "Feature",
      "properties": {
        "norad_id": 27818,
        "name": "COSMOS 2398",
        "group": "musson",
        "lat": 5.366210339873425,
        "lon": 87.2042620646007,
        "alt_km": 989.015685642421,
        "timestamp": "2025-12-19T06:59:44.178271+00:00",
        "meta_object_name": "COSMOS 2398",
        "meta_object_id": "2003-023A",
        "meta_epoch": "2025-12-18T21:44:54.453984",
        "meta_mean_motion": 13.72386281,
        "meta_eccentricity": 0.00327386,
        "meta_inclination": 82.9484,
        "meta_ra_of_asc_node": 268.1543,
        "meta_arg_of_pericenter": 95.3174,
        "meta_mean_anomaly": 336.2638,
        "meta_ephemeris_type": 0,
        "meta_classification_type": "U",
        "meta_norad_cat_id": 27818,
        "meta_element_set_no": 999,
        "meta_rev_at_epoch": 12901,
        "meta_bstar": 3.8373866e-05,
        "meta_mean_motion_dot": 5.1e-07,
        "meta_mean_motion_ddot": 0,
        "tle_line1": "1 27818U 03023A   25352.90618581  .00000051  00000+0  38374-4 0  9993",
        "tle_line2": "2 27818  82.9484 268.1543 0032738  95.3174 336.2638 13.72386281129019"
      },
      "geometry": {
        "type": "Point",
        "coordinates": [
          87.2042620646007,
          5.366210339873425
        ]
      }
    },
    {
      "type": "Feature",
      "properties": {
        "norad_id": 28380,
        "name": "COSMOS 2407",
        "group": "musson",
        "lat": 75.41912883847833,
        "lon": -0.31998098304480915,
        "alt_km": 957.6712605670928,
        "timestamp": "2025-12-19T06:59:44.178282+00:00",
        "meta_object_name": "COSMOS 2407",
        "meta_object_id": "2004-028A",
        "meta_epoch": "2025-12-18T16:52:07.325184",
        "meta_mean_motion": 13.76314339,
        "meta_eccentricity": 0.00400741,
        "meta_inclination": 82.96,
        "meta_ra_of_asc_node": 208.4777,
        "meta_arg_of_pericenter": 38.6121,
        "meta_mean_anomaly": 28.9326,
        "meta_ephemeris_type": 0,
        "meta_classification_type": "U",
        "meta_norad_cat_id": 28380,
        "meta_element_set_no": 999,
        "meta_rev_at_epoch": 7505,
        "meta_bstar": 6.0956223e-05,
        "meta_mean_motion_dot": 7.5e-07,
        "meta_mean_motion_ddot": 0,
        "tle_line1": "1 28380U 04028A   25352.70286256  .00000075  00000+0  60956-4 0  9999",
        "tle_line2": "2 28380  82.9600 208.4777 0040074  38.6121  28.9326 13.76314339 75056"
      },
      "geometry": {
        "type": "Point",
        "coordinates": [
          -0.31998098304480915,
          75.41912883847833
        ]
      }
    },
    {
      "type": "Feature",
      "properties": {
        "norad_id": 28521,
        "name": "COSMOS 2414",
        "group": "musson",
        "lat": -78.61319698673597,
        "lon": 141.78606200033184,
        "alt_km": 971.1994331050246,
        "timestamp": "2025-12-19T06:59:44.178294+00:00",
        "meta_object_name": "COSMOS 2414",
        "meta_object_id": "2005-002A",
        "meta_epoch": "2025-12-18T22:44:14.200512",
        "meta_mean_motion": 13.87903773,
        "meta_eccentricity": 0.00412082,
        "meta_inclination": 82.9488,
        "meta_ra_of_asc_node": 179.9657,
        "meta_arg_of_pericenter": 122.3921,
        "meta_mean_anomaly": 238.1241,
        "meta_ephemeris_type": 0,
        "meta_classification_type": "U",
        "meta_norad_cat_id": 28521,
        "meta_element_set_no": 999,
        "meta_rev_at_epoch": 5881,
        "meta_bstar": 5.0386673e-05,
        "meta_mean_motion_dot": 7.6e-07,
        "meta_mean_motion_ddot": 0,
        "tle_line1": "1 28521U 05002A   25352.94738658  .00000076  00000+0  50387-4 0  9991",
        "tle_line2": "2 28521  82.9488 179.9657 0041208 122.3921 238.1241 13.87903773 58819"
      },
      "geometry": {
        "type": "Point",
        "coordinates": [
          141.78606200033184,
          -78.61319698673597
        ]
      }
    },
    {
      "type": "Feature",
      "properties": {
        "norad_id": 32052,
        "name": "COSMOS 2429",
        "group": "musson",
        "lat": 66.13561258654907,
        "lon": 142.30796198664927,
        "alt_km": 976.0532590945159,
        "timestamp": "2025-12-19T06:59:44.178304+00:00",
        "meta_object_name": "COSMOS 2429",
        "meta_object_id": "2007-038A",
        "meta_epoch": "2025-12-18T23:28:00.524640",
        "meta_mean_motion": 13.75150038,
        "meta_eccentricity": 0.00388944,
        "meta_inclination": 82.9804,
        "meta_ra_of_asc_node": 338.7098,
        "meta_arg_of_pericenter": 20.7684,
        "meta_mean_anomaly": 339.5042,
        "meta_ephemeris_type": 0,
        "meta_classification_type": "U",
        "meta_norad_cat_id": 32052,
        "meta_element_set_no": 999,
        "meta_rev_at_epoch": 91688,
        "meta_bstar": 4.3945415e-05,
        "meta_mean_motion_dot": 5.8e-07,
        "meta_mean_motion_ddot": 0,
        "tle_line1": "1 32052U 07038A   25352.97778385  .00000058  00000+0  43945-4 0  9992",
        "tle_line2": "2 32052  82.9804 338.7098 0038894  20.7684 339.5042 13.75150038916883"
      },
      "geometry": {
        "type": "Point",
        "coordinates": [
          142.30796198664927,
          66.13561258654907
        ]
      }
    },
    {
      "type": "Feature",
      "properties": {
        "norad_id": 35635,
        "name": "COSMOS 2454",
        "group": "musson",
        "lat": 16.32959979119259,
        "lon": 165.75429969536984,
        "alt_km": 918.020683436821,
        "timestamp": "2025-12-19T06:59:44.178315+00:00",
        "meta_object_name": "COSMOS 2454",
        "meta_object_id": "2009-039A",
        "meta_epoch": "2025-12-18T23:03:52.612704",
        "meta_mean_motion": 13.89929381,
        "meta_eccentricity": 0.00202783,
        "meta_inclination": 82.9554,
        "meta_ra_of_asc_node": 163.9287,
        "meta_arg_of_pericenter": 57.0758,
        "meta_mean_anomaly": 107.0563,
        "meta_ephemeris_type": 0,
        "meta_classification_type": "U",
        "meta_norad_cat_id": 35635,
        "meta_element_set_no": 999,
        "meta_rev_at_epoch": 83236,
        "meta_bstar": 3.9332347e-05,
        "meta_mean_motion_dot": 6.4e-07,
        "meta_mean_motion_ddot": 0,
        "tle_line1": "1 35635U 09039A   25352.96102561  .00000064  00000+0  39332-4 0  9993",
        "tle_line2": "2 35635  82.9554 163.9287 0020278  57.0758 107.0563 13.89929381832361"
      },
      "geometry": {
        "type": "Point",
        "coordinates": [
          165.75429969536984,
          16.32959979119259
        ]
      }
    },
    {
      "type": "Feature",
      "properties": {
        "norad_id": 36519,
        "name": "COSMOS 2463",
        "group": "musson",
        "lat": -13.252258153192324,
        "lon": 20.23063022170897,
        "alt_km": 992.4736484038704,
        "timestamp": "2025-12-19T06:59:44.178325+00:00",
        "meta_object_name": "COSMOS 2463",
        "meta_object_id": "2010-017A",
        "meta_epoch": "2025-12-18T14:06:06.816960",
        "meta_mean_motion": 13.71649688,
        "meta_eccentricity": 0.00347403,
        "meta_inclination": 82.9606,
        "meta_ra_of_asc_node": 22.4152,
        "meta_arg_of_pericenter": 271.2248,
        "meta_mean_anomaly": 201.2621,
        "meta_ephemeris_type": 0,
        "meta_classification_type": "U",
        "meta_norad_cat_id": 36519,
        "meta_element_set_no": 999,
        "meta_rev_at_epoch": 78317,
        "meta_bstar": 6.2664974e-05,
        "meta_mean_motion_dot": 7.1e-07,
        "meta_mean_motion_ddot": 0,
        "tle_line1": "1 36519U 10017A   25352.58757890  .00000071  00000+0  62665-4 0  9995",
        "tle_line2": "2 36519  82.9606  22.4152 0034740 271.2248 201.2621 13.71649688783170"
      },
      "geometry": {
        "type": "Point",
        "coordinates": [
          20.23063022170897,
          -13.252258153192324
        ]
      }
    }
  ]
}